IRIDIUM 136             
1 42962U 17061H   24217.75466180  .00000050  00000+0  10833-4 0  9994
2 42962  86.3990 310.0234 0002607  96.2971 263.8521 14.34217902357164
